[{"OBJECT_NAME":"STARLINK-35154","OBJECT_ID":"2025-207W","EPOCH":"2026-03-09T22:39:40.819680","MEAN_MOTION":15.05648687,"ECCENTRICITY":8.56e-5,"INCLINATION":97.6037,"RA_OF_ASC_NODE":138.9743,"ARG_OF_PERICENTER":106.6462,"MEAN_ANOMALY":253.4859,"EPHEMERIS_TYPE":0,"CLASSIFICATION_TYPE":"U","NORAD_CAT_ID":65612,"ELEMENT_SET_NO":999,"REV_AT_EPOCH":2814,"BSTAR":0.00026506495,"MEAN_MOTION_DOT":3.766e-5,"MEAN_MOTION_DDOT":0},{"OBJECT_NAME":"PSLV DEB","OBJECT_ID":"2001-049NA","EPOCH":"2026-03-08T15:04:56.759808","MEAN_MOTION":15.08740413,"ECCENTRICITY":0.00254054,"INCLINATION":98.314,"RA_OF_ASC_NODE":131.3874,"ARG_OF_PERICENTER":357.4644,"MEAN_ANOMALY":2.6449,"EPHEMERIS_TYPE":0,"CLASSIFICATION_TYPE":"U","NORAD_CAT_ID":27582,"ELEMENT_SET_NO":999,"REV_AT_EPOCH":27774,"BSTAR":0.00086862236,"MEAN_MOTION_DOT":0.0001368,"MEAN_MOTION_DDOT":0}]
